{
  "type": "FeatureCollection",
  "features": [
    {
      "type": "Feature",
      "properties": {
        "norad_id": 39617,
        "name": "ASTRA 5B (EGNOS/PRN 123)",
        "group": "gnss",
        "lat": 0.029072757701150788,
        "lon": 178.71159055262953,
        "alt_km": 35784.64237214338,
        "timestamp": "2025-12-11T05:00:26.551849+00:00",
        "meta_object_name": "ASTRA 5B (EGNOS/PRN 123)",
        "meta_object_id": "2014-011B",
        "meta_epoch": "2025-12-10T21:27:38.786688",
        "meta_mean_motion": 1.00271377,
        "meta_eccentricity": 0.00044489,
        "meta_inclination": 0.0581,
        "meta_ra_of_asc_node": 34.6018,
        "meta_arg_of_pericenter": 229.5614,
        "meta_mean_anomaly": 161.0945,
        "meta_ephemeris_type": 0,
        "meta_classification_type": "U",
        "meta_norad_cat_id": 39617,
        "meta_element_set_no": 999,
        "meta_rev_at_epoch": 4277,
        "meta_bstar": 0,
        "meta_mean_motion_dot": 1.42e-06,
        "meta_mean_motion_ddot": 0,
        "tle_line1": "1 39617U 14011B   25344.89419892  .00000142  00000+0  00000+0 0  9996",
        "tle_line2": "2 39617   0.0581  34.6018 0004448 229.5614 161.0945  1.00271377 42777"
      },
      "geometry": {
        "type": "Point",
        "coordinates": [
          178.71159055262953,
          0.029072757701150788
        ]
      }
    },
    {
      "type": "Feature",
      "properties": {
        "norad_id": 39620,
        "name": "COSMOS 2492 (754)",
        "group": "gnss",
        "lat": 30.089665832166716,
        "lon": -24.30321677526589,
        "alt_km": 19121.523531070412,
        "timestamp": "2025-12-11T05:00:26.551863+00:00",
        "meta_object_name": "COSMOS 2492 (754)",
        "meta_object_id": "2014-012A",
        "meta_epoch": "2025-12-10T05:26:14.562816",
        "meta_mean_motion": 2.13102977,
        "meta_eccentricity": 0.00142093,
        "meta_inclination": 65.4091,
        "meta_ra_of_asc_node": 320.3564,
        "meta_arg_of_pericenter": 311.2257,
        "meta_mean_anomaly": 48.6498,
        "meta_ephemeris_type": 0,
        "meta_classification_type": "U",
        "meta_norad_cat_id": 39620,
        "meta_element_set_no": 999,
        "meta_rev_at_epoch": 9121,
        "meta_bstar": 0,
        "meta_mean_motion_dot": -5e-07,
        "meta_mean_motion_ddot": 0,
        "tle_line1": "1 39620U 14012A   25344.22655744 -.00000050  00000+0  00000+0 0  9995",
        "tle_line2": "2 39620  65.4091 320.3564 0014209 311.2257  48.6498  2.13102977 91211"
      },
      "geometry": {
        "type": "Point",
        "coordinates": [
          -24.30321677526589,
          30.089665832166716
        ]
      }
    },
    {
      "type": "Feature",
      "properties": {
        "norad_id": 39635,
        "name": "IRNSS-1B",
        "group": "gnss",
        "lat": -15.28746300826331,
        "lon": -146.09941234477714,
        "alt_km": 35846.695243764996,
        "timestamp": "2025-12-11T05:00:26.551874+00:00",
        "meta_object_name": "IRNSS-1B",
        "meta_object_id": "2014-017A",
        "meta_epoch": "2025-12-07T19:02:08.350080",
        "meta_mean_motion": 1.00276938,
        "meta_eccentricity": 0.00176548,
        "meta_inclination": 28.8332,
        "meta_ra_of_asc_node": 243.6763,
        "meta_arg_of_pericenter": 183.0277,
        "meta_mean_anomaly": 350.7455,
        "meta_ephemeris_type": 0,
        "meta_classification_type": "U",
        "meta_norad_cat_id": 39635,
        "meta_element_set_no": 999,
        "meta_rev_at_epoch": 4287,
        "meta_bstar": 0,
        "meta_mean_motion_dot": 1.18e-06,
        "meta_mean_motion_ddot": 0,
        "tle_line1": "1 39635U 14017A   25341.79315220  .00000118  00000+0  00000+0 0  9991",
        "tle_line2": "2 39635  28.8332 243.6763 0017654 183.0277 350.7455  1.00276938 42872"
      },
      "geometry": {
        "type": "Point",
        "coordinates": [
          -146.09941234477714,
          -15.28746300826331
        ]
      }
    },
    {
      "type": "Feature",
      "properties": {
        "norad_id": 39727,
        "name": "LUCH 5V (SDCM/PRN 141)",
        "group": "gnss",
        "lat": 0.10639243166124833,
        "lon": -109.97457432074158,
        "alt_km": 35768.83797528913,
        "timestamp": "2025-12-11T05:00:26.551886+00:00",
        "meta_object_name": "LUCH 5V (SDCM/PRN 141)",
        "meta_object_id": "2014-023A",
        "meta_epoch": "2025-12-10T20:17:58.295040",
        "meta_mean_motion": 1.0026947,
        "meta_eccentricity": 0.00046468,
        "meta_inclination": 4.6648,
        "meta_ra_of_asc_node": 71.5521,
        "meta_arg_of_pericenter": 202.8263,
        "meta_mean_anomaly": 204.6896,
        "meta_ephemeris_type": 0,
        "meta_classification_type": "U",
        "meta_norad_cat_id": 39727,
        "meta_element_set_no": 999,
        "meta_rev_at_epoch": 4247,
        "meta_bstar": 0,
        "meta_mean_motion_dot": -2.64e-06,
        "meta_mean_motion_ddot": 0,
        "tle_line1": "1 39727U 14023A   25344.84581360 -.00000264  00000+0  00000+0 0  9992",
        "tle_line2": "2 39727   4.6648  71.5521 0004646 202.8263 204.6896  1.00269470 42473"
      },
      "geometry": {
        "type": "Point",
        "coordinates": [
          -109.97457432074158,
          0.10639243166124833
        ]
      }
    },
    {
      "type": "Feature",
      "properties": {
        "norad_id": 39741,
        "name": "GPS BIIF-6  (PRN 06)",
        "group": "gnss",
        "lat": 23.32816903404362,
        "lon": 142.2908331641921,
        "alt_km": 20280.830253377546,
        "timestamp": "2025-12-11T05:00:26.551897+00:00",
        "meta_object_name": "GPS BIIF-6  (PRN 06)",
        "meta_object_id": "2014-026A",
        "meta_epoch": "2025-12-10T11:59:17.120544",
        "meta_mean_motion": 2.0056147,
        "meta_eccentricity": 0.00391337,
        "meta_inclination": 56.5845,
        "meta_ra_of_asc_node": 338.8635,
        "meta_arg_of_pericenter": 318.5534,
        "meta_mean_anomaly": 41.1613,
        "meta_ephemeris_type": 0,
        "meta_classification_type": "U",
        "meta_norad_cat_id": 39741,
        "meta_element_set_no": 999,
        "meta_rev_at_epoch": 8475,
        "meta_bstar": 0,
        "meta_mean_motion_dot": -8.5e-07,
        "meta_mean_motion_ddot": 0,
        "tle_line1": "1 39741U 14026A   25344.49950371 -.00000085  00000+0  00000+0 0  9995",
        "tle_line2": "2 39741  56.5845 338.8635 0039133 318.5534  41.1613  2.00561470 84758"
      },
      "geometry": {
        "type": "Point",
        "coordinates": [
          142.2908331641921,
          23.32816903404362
        ]
      }
    },
    {
      "type": "Feature",
      "properties": {
        "norad_id": 40001,
        "name": "COSMOS 2500 (755)",
        "group": "gnss",
        "lat": -63.94760910393496,
        "lon": -149.99074855957437,
        "alt_km": 19120.47491085138,
        "timestamp": "2025-12-11T05:00:26.551908+00:00",
        "meta_object_name": "COSMOS 2500 (755)",
        "meta_object_id": "2014-032A",
        "meta_epoch": "2025-12-09T11:02:48.490944",
        "meta_mean_motion": 2.13105796,
        "meta_eccentricity": 0.000831,
        "meta_inclination": 65.3451,
        "meta_ra_of_asc_node": 320.1442,
        "meta_arg_of_pericenter": 219.1348,
        "meta_mean_anomaly": 140.802,
        "meta_ephemeris_type": 0,
        "meta_classification_type": "U",
        "meta_norad_cat_id": 40001,
        "meta_element_set_no": 999,
        "meta_rev_at_epoch": 8941,
        "meta_bstar": 0,
        "meta_mean_motion_dot": -4.9e-07,
        "meta_mean_motion_ddot": 0,
        "tle_line1": "1 40001U 14032A   25343.46028346 -.00000049  00000+0  00000+0 0  9997",
        "tle_line2": "2 40001  65.3451 320.1442 0008310 219.1348 140.8020  2.13105796 89418"
      },
      "geometry": {
        "type": "Point",
        "coordinates": [
          -149.99074855957437,
          -63.94760910393496
        ]
      }
    },
    {
      "type": "Feature",
      "properties": {
        "norad_id": 40105,
        "name": "GPS BIIF-7  (PRN 09)",
        "group": "gnss",
        "lat": 55.22486584892931,
        "lon": -175.97253088344388,
        "alt_km": 20100.44337463497,
        "timestamp": "2025-12-11T05:00:26.551927+00:00",
        "meta_object_name": "GPS BIIF-7  (PRN 09)",
        "meta_object_id": "2014-045A",
        "meta_epoch": "2025-12-10T14:05:32.873856",
        "meta_mean_motion": 2.00572371,
        "meta_eccentricity": 0.00327329,
        "meta_inclination": 55.2279,
        "meta_ra_of_asc_node": 95.9848,
        "meta_arg_of_pericenter": 119.8162,
        "meta_mean_anomaly": 240.4986,
        "meta_ephemeris_type": 0,
        "meta_classification_type": "U",
        "meta_norad_cat_id": 40105,
        "meta_element_set_no": 999,
        "meta_rev_at_epoch": 8229,
        "meta_bstar": 0,
        "meta_mean_motion_dot": 0,
        "meta_mean_motion_ddot": 0,
        "tle_line1": "1 40105U 14045A   25344.58718604  .00000000  00000+0  00000+0 0  9999",
        "tle_line2": "2 40105  55.2279  95.9848 0032732 119.8162 240.4986  2.00572371 82291"
      },
      "geometry": {
        "type": "Point",
        "coordinates": [
          -175.97253088344388,
          55.22486584892931
        ]
      }
    }
  ]
}